{
  "type": "FeatureCollection",
  "features": [
    {
      "type": "Feature",
      "properties": {
        "norad_id": 42989,
        "name": "SKYSAT-C9",
        "group": "resource",
        "lat": 72.38131208354744,
        "lon": 107.31113760803557,
        "alt_km": 443.9293865030995,
        "timestamp": "2025-12-27T03:58:43.835605+00:00",
        "meta_object_name": "SKYSAT-C9",
        "meta_object_id": "2017-068C",
        "meta_epoch": "2025-12-26T08:54:05.306400",
        "meta_mean_motion": 15.36395186,
        "meta_eccentricity": 0.0010185,
        "meta_inclination": 97.4193,
        "meta_ra_of_asc_node": 130.7353,
        "meta_arg_of_pericenter": 43.9303,
        "meta_mean_anomaly": 316.2749,
        "meta_ephemeris_type": 0,
        "meta_classification_type": "U",
        "meta_norad_cat_id": 42989,
        "meta_element_set_no": 999,
        "meta_rev_at_epoch": 45617,
        "meta_bstar": 0.00038182,
        "meta_mean_motion_dot": 0.00013502,
        "meta_mean_motion_ddot": 0,
        "tle_line1": "1 42989U 17068C   25360.37089475  .00013502  00000+0  38182-3 0  9998",
        "tle_line2": "2 42989  97.4193 130.7353 0010185  43.9303 316.2749 15.36395186456178"
      },
      "geometry": {
        "type": "Point",
        "coordinates": [
          107.31113760803557,
          72.38131208354744
        ]
      }
    },
    {
      "type": "Feature",
      "properties": {
        "norad_id": 42990,
        "name": "SKYSAT-C8",
        "group": "resource",
        "lat": -60.48971085896192,
        "lon": -62.0963154027889,
        "alt_km": 472.69955334256883,
        "timestamp": "2025-12-27T03:58:43.835614+00:00",
        "meta_object_name": "SKYSAT-C8",
        "meta_object_id": "2017-068D",
        "meta_epoch": "2025-12-26T14:23:55.826016",
        "meta_mean_motion": 15.33228179,
        "meta_eccentricity": 9.52e-05,
        "meta_inclination": 97.4287,
        "meta_ra_of_asc_node": 130.6631,
        "meta_arg_of_pericenter": 257.2238,
        "meta_mean_anomaly": 102.8898,
        "meta_ephemeris_type": 0,
        "meta_classification_type": "U",
        "meta_norad_cat_id": 42990,
        "meta_element_set_no": 999,
        "meta_rev_at_epoch": 45583,
        "meta_bstar": 0.00038952,
        "meta_mean_motion_dot": 0.00012433,
        "meta_mean_motion_ddot": 0,
        "tle_line1": "1 42990U 17068D   25360.59995169  .00012433  00000+0  38952-3 0  9997",
        "tle_line2": "2 42990  97.4287 130.6631 0000952 257.2238 102.8898 15.33228179455830"
      },
      "geometry": {
        "type": "Point",
        "coordinates": [
          -62.0963154027889,
          -60.48971085896192
        ]
      }
    },
    {
      "type": "Feature",
      "properties": {
        "norad_id": 42991,
        "name": "SKYSAT-C7",
        "group": "resource",
        "lat": 64.55434461425091,
        "lon": 116.34360433524816,
        "alt_km": 459.0356470507786,
        "timestamp": "2025-12-27T03:58:43.835624+00:00",
        "meta_object_name": "SKYSAT-C7",
        "meta_object_id": "2017-068E",
        "meta_epoch": "2025-12-26T08:53:26.128320",
        "meta_mean_motion": 15.32615619,
        "meta_eccentricity": 0.0006786,
        "meta_inclination": 97.4296,
        "meta_ra_of_asc_node": 131.4629,
        "meta_arg_of_pericenter": 13.3039,
        "meta_mean_anomaly": 346.838,
        "meta_ephemeris_type": 0,
        "meta_classification_type": "U",
        "meta_norad_cat_id": 42991,
        "meta_element_set_no": 999,
        "meta_rev_at_epoch": 45586,
        "meta_bstar": 0.00036175,
        "meta_mean_motion_dot": 0.00011327,
        "meta_mean_motion_ddot": 0,
        "tle_line1": "1 42991U 17068E   25360.37044130  .00011327  00000+0  36175-3 0  9993",
        "tle_line2": "2 42991  97.4296 131.4629 0006786  13.3039 346.8380 15.32615619455865"
      },
      "geometry": {
        "type": "Point",
        "coordinates": [
          116.34360433524816,
          64.55434461425091
        ]
      }
    },
    {
      "type": "Feature",
      "properties": {
        "norad_id": 42992,
        "name": "SKYSAT-C6",
        "group": "resource",
        "lat": 40.58648168330711,
        "lon": -40.89075183001149,
        "alt_km": 467.74430534403564,
        "timestamp": "2025-12-27T03:58:43.835633+00:00",
        "meta_object_name": "SKYSAT-C6",
        "meta_object_id": "2017-068F",
        "meta_epoch": "2025-12-25T20:01:06.090528",
        "meta_mean_motion": 15.31757076,
        "meta_eccentricity": 0.00047376,
        "meta_inclination": 97.4326,
        "meta_ra_of_asc_node": 131.3522,
        "meta_arg_of_pericenter": 46.8398,
        "meta_mean_anomaly": 313.3239,
        "meta_ephemeris_type": 0,
        "meta_classification_type": "U",
        "meta_norad_cat_id": 42992,
        "meta_element_set_no": 999,
        "meta_rev_at_epoch": 45576,
        "meta_bstar": 0.00037471515,
        "meta_mean_motion_dot": 0.0001142,
        "meta_mean_motion_ddot": 0,
        "tle_line1": "1 42992U 17068F   25359.83409827  .00011420  00000+0  37472-3 0  9996",
        "tle_line2": "2 42992  97.4326 131.3522 0004737  46.8398 313.3239 15.31757076455768"
      },
      "geometry": {
        "type": "Point",
        "coordinates": [
          -40.89075183001149,
          40.58648168330711
        ]
      }
    },
    {
      "type": "Feature",
      "properties": {
        "norad_id": 43111,
        "name": "CARTOSAT-2F",
        "group": "resource",
        "lat": -36.531514220838716,
        "lon": 64.11557560744917,
        "alt_km": 515.3534662655929,
        "timestamp": "2025-12-27T03:58:43.835642+00:00",
        "meta_object_name": "CARTOSAT-2F",
        "meta_object_id": "2018-004A",
        "meta_epoch": "2025-12-26T20:14:14.355744",
        "meta_mean_motion": 15.19259316,
        "meta_eccentricity": 0.0001553,
        "meta_inclination": 97.4297,
        "meta_ra_of_asc_node": 58.2507,
        "meta_arg_of_pericenter": 108.9361,
        "meta_mean_anomaly": 251.2042,
        "meta_ephemeris_type": 0,
        "meta_classification_type": "U",
        "meta_norad_cat_id": 43111,
        "meta_element_set_no": 999,
        "meta_rev_at_epoch": 44116,
        "meta_bstar": 0.00021244,
        "meta_mean_motion_dot": 4.411e-05,
        "meta_mean_motion_ddot": 0,
        "tle_line1": "1 43111U 18004A   25360.84322171  .00004411  00000+0  21244-3 0  9992",
        "tle_line2": "2 43111  97.4297  58.2507 0001553 108.9361 251.2042 15.19259316441163"
      },
      "geometry": {
        "type": "Point",
        "coordinates": [
          64.11557560744917,
          -36.531514220838716
        ]
      }
    },
    {
      "type": "Feature",
      "properties": {
        "norad_id": 43259,
        "name": "GAOFEN-1 02",
        "group": "resource",
        "lat": 29.283567035646573,
        "lon": 54.39002613209575,
        "alt_km": 640.5325072389742,
        "timestamp": "2025-12-27T03:58:43.835651+00:00",
        "meta_object_name": "GAOFEN-1 02",
        "meta_object_id": "2018-031A",
        "meta_epoch": "2025-12-26T21:20:20.664384",
        "meta_mean_motion": 14.76444393,
        "meta_eccentricity": 0.0002709,
        "meta_inclination": 98.0783,
        "meta_ra_of_asc_node": 58.6818,
        "meta_arg_of_pericenter": 166.3273,
        "meta_mean_anomaly": 193.8011,
        "meta_ephemeris_type": 0,
        "meta_classification_type": "U",
        "meta_norad_cat_id": 43259,
        "meta_element_set_no": 999,
        "meta_rev_at_epoch": 41727,
        "meta_bstar": 0.00015151,
        "meta_mean_motion_dot": 1.002e-05,
        "meta_mean_motion_ddot": 0,
        "tle_line1": "1 43259U 18031A   25360.88912806  .00001002  00000+0  15151-3 0  9992",
        "tle_line2": "2 43259  98.0783  58.6818 0002709 166.3273 193.8011 14.76444393417271"
      },
      "geometry": {
        "type": "Point",
        "coordinates": [
          54.39002613209575,
          29.283567035646573
        ]
      }
    },
    {
      "type": "Feature",
      "properties": {
        "norad_id": 43260,
        "name": "GAOFEN-1 03",
        "group": "resource",
        "lat": 33.69211479262188,
        "lon": -115.73195357985361,
        "alt_km": 638.792191386141,
        "timestamp": "2025-12-27T03:58:43.835660+00:00",
        "meta_object_name": "GAOFEN-1 03",
        "meta_object_id": "2018-031B",
        "meta_epoch": "2025-12-26T20:48:51.257088",
        "meta_mean_motion": 14.76427517,
        "meta_eccentricity": 0.0001657,
        "meta_inclination": 98.0779,
        "meta_ra_of_asc_node": 58.5361,
        "meta_arg_of_pericenter": 250.3765,
        "meta_mean_anomaly": 109.7266,
        "meta_ephemeris_type": 0,
        "meta_classification_type": "U",
        "meta_norad_cat_id": 43260,
        "meta_element_set_no": 999,
        "meta_rev_at_epoch": 41726,
        "meta_bstar": 0.00014577,
        "meta_mean_motion_dot": 9.62e-06,
        "meta_mean_motion_ddot": 0,
        "tle_line1": "1 43260U 18031B   25360.86725992  .00000962  00000+0  14577-3 0  9995",
        "tle_line2": "2 43260  98.0779  58.5361 0001657 250.3765 109.7266 14.76427517417267"
      },
      "geometry": {
        "type": "Point",
        "coordinates": [
          -115.73195357985361,
          33.69211479262188
        ]
      }
    }
  ]
}